OBJECT_NAME,OBJECT_ID,EPOCH,MEAN_MOTION,ECCENTRICITY,INCLINATION,RA_OF_ASC_NODE,ARG_OF_PERICENTER,MEAN_ANOMALY,EPHEMERIS_TYPE,CLASSIFICATION_TYPE,NORAD_CAT_ID,ELEMENT_SET_NO,REV_AT_EPOCH,BSTAR,MEAN_MOTION_DOT,MEAN_MOTION_DDOT
TANSAT,2016-081A,2026-06-10T06:11:18.060288,14.59946361,.0020043,98.5368,161.3109,334.5202,25.5007,0,U,41898,999,50361,.13759672E-3,.61E-5,0
JILIN-1 03,2017-002B,2026-06-10T06:35:36.442176,15.41408860,.00058939,97.1950,168.4573,176.0974,184.0320,0,U,41914,999,52079,.29982467E-3,.1246E-3,0
CARTOSAT-2D,2017-008A,2026-06-10T05:49:47.406720,15.19281539,.00036747,97.4108,220.6783,261.0700,99.0119,0,U,41948,999,51652,.21859852E-3,.4544E-4,0
CARTOSAT-2E,2017-036C,2026-06-10T07:49:59.390112,15.19266213,.00028497,97.4275,221.2418,350.9352,9.1831,0,U,42767,999,49710,.10800323E-3,.2209E-4,0
IRIDIUM 113,2017-039A,2026-06-09T23:37:35.236704,14.34217557,.00023094,86.3966,325.1904,89.8107,270.3354,0,U,42803,999,47015,.11869189E-4,.53E-6,0
NORSAT 2,2017-042D,2026-06-09T23:48:54.263808,15.21787997,.00108491,97.4036,334.5486,79.7911,280.4548,0,U,42828,999,48664,.42301636E-3,.9549E-4,0
TECHNOSAT,2017-042E,2026-06-09T09:40:57.582336,15.04906105,.00188307,97.4264,318.3590,118.8363,241.4757,0,U,42829,999,48553,.19144777E-3,.266E-4,0
FLYING LAPTOP,2017-042G,2026-06-10T06:04:21.234720,15.01099954,.0019271,97.4660,317.0547,144.3500,215.9016,0,U,42831,999,48541,.24142446E-3,.3044E-4,0
WNISAT 1R,2017-042L,2026-06-10T03:53:42.382176,15.01732532,.0010304,97.4830,317.5364,171.3310,188.8095,0,U,42835,999,48545,.169975E-3,.2156E-4,0
LEMUR-2-GREENBERG,2017-042N,2026-06-10T05:24:29.540160,15.31115485,.00091996,97.3821,341.8840,38.0436,322.1453,0,U,42837,999,48732,.52146607E-3,.15632E-3,0
LEMUR-2-FURIAUS,2017-042R,2026-06-09T22:51:44.864640,15.30015729,.00085109,97.3772,339.5843,91.1210,269.1005,0,U,42840,999,48710,.59459299E-3,.17238E-3,0
CORVUS BC2,2017-042X,2026-06-09T21:17:54.816864,15.06248195,.00142076,97.4054,322.5225,132.8249,227.4176,0,U,42846,999,48596,.17768664E-3,.2553E-4,0
CORVUS BC1,2017-042Y,2026-06-09T22:46:59.793888,15.06416487,.0013225,97.4081,323.3911,111.4047,248.8593,0,U,42847,999,48600,.20310757E-3,.2939E-4,0
VRSS-2,2017-060A,2026-06-10T07:06:58.931424,14.81182398,.00183666,97.6518,199.3337,119.4468,240.8581,0,U,42954,999,46743,.60781117E-4,.424E-5,0
MOHAMMED VI-A,2017-070A,2026-06-10T07:13:38.273088,14.77061395,.00014884,97.9554,233.7270,73.6751,286.4623,0,U,43005,999,46296,.12024772E-3,.798E-5,0
FENGYUN 3D,2017-072A,2026-06-10T05:46:47.438976,14.19738836,.00026623,99.0124,135.5377,73.1397,287.0070,0,U,43010,999,44400,.11554664E-3,.198E-5,0
NOAA 20 (JPSS-1),2017-073A,2026-06-10T05:37:52.828608,14.19510454,.00004017,98.7772,100.7591,48.2084,311.9127,0,U,43013,999,44348,.37460926E-4,.35E-6,0
MAKERSAT 0,2017-073D,2026-06-10T04:35:06.174816,15.31854691,.01056916,97.4634,43.6556,298.3481,60.7133,0,U,43016,999,46539,.49572616E-3,.18116E-3,0
RADFXSAT (FOX-1B),2017-073E,2026-06-09T14:25:08.794272,15.12592571,.01506991,97.4720,27.9710,355.5385,4.4491,0,U,43017,999,46424,.33267068E-3,.7602E-4,0
JILIN-1 04,2017-074A,2026-06-10T06:34:36.637824,15.42269302,.00035486,97.4847,270.7035,202.0720,158.0375,0,U,43022,999,47320,.29527452E-3,.12618E-3,0
JILIN-1 05,2017-074B,2026-06-10T06:30:25.339968,15.33767969,.00038806,97.4853,267.3327,244.2180,115.8662,0,U,43023,999,47294,.23430098E-3,.7571E-4,0
JILIN-1 06,2017-074C,2026-06-10T07:22:21.942624,15.33618467,.00053174,97.4781,264.3874,260.9467,99.1174,0,U,43024,999,47278,.15572931E-3,.4981E-4,0
IRIDIUM 116,2017-083C,2026-06-09T23:01:03.155520,14.34217476,.00018817,86.3959,325.0242,94.9084,265.2327,0,U,43072,999,44313,.9813183E-5,.47E-6,0
IRIDIUM 130,2017-083D,2026-06-09T22:15:23.056416,14.34217599,.00018432,86.3963,325.3121,88.4845,271.6562,0,U,43073,999,44307,-.46066615E-4,-.109E-5,0
LKW-2,2017-084A,2026-06-10T08:11:31.324992,15.26249476,.00002708,97.1200,201.4575,196.3430,163.7801,0,U,43080,999,47064,.23932163E-3,.6132E-4,0
SUPERVIEW-1 03,2018-002A,2026-06-10T06:34:59.989152,15.39022944,.00467834,97.3132,246.1237,204.3481,155.5555,0,U,43099,999,46730,.39470102E-3,.15769E-3,0
LKW-3,2018-006A,2026-06-10T06:36:04.762368,15.35111978,.00025527,97.6605,321.5799,355.1907,4.9311,0,U,43146,999,46765,.26417863E-3,.8918E-4,0
