TANSAT                  
1 41898U 16081A   26161.25784792  .00000610  00000+0  13760-3 0  9992
2 41898  98.5368 161.3109 0020043 334.5202  25.5007 14.59946361503612
JILIN-1 03              
1 41914U 17002B   26161.27472734  .00012460  00000+0  29982-3 0  9996
2 41914  97.1950 168.4573 0005893 176.0974 184.0320 15.41408860520793
CARTOSAT-2D             
1 41948U 17008A   26161.24290980  .00004544  00000+0  21860-3 0  9998
2 41948  97.4108 220.6783 0003674 261.0700  99.0119 15.19281539516523
CARTOSAT-2E             
1 42767U 17036C   26161.32638183  .00002209  00000+0  10800-3 0  9997
2 42767  97.4275 221.2418 0002849 350.9352   9.1831 15.19266213497101
IRIDIUM 113             
1 42803U 17039A   26160.98443561  .00000053  00000+0  11869-4 0  9998
2 42803  86.3966 325.1904 0002309  89.8107 270.3354 14.34217557470158
NORSAT 2                
1 42828U 17042D   26160.99229472  .00009549  00000+0  42302-3 0  9997
2 42828  97.4036 334.5486 0010849  79.7911 280.4548 15.21787997486649
TECHNOSAT               
1 42829U 17042E   26160.40344424  .00002660  00000+0  19145-3 0  9995
2 42829  97.4264 318.3590 0018830 118.8363 241.4757 15.04906105485534
FLYING LAPTOP           
1 42831U 17042G   26161.25302355  .00003044  00000+0  24142-3 0  9999
2 42831  97.4660 317.0547 0019271 144.3500 215.9016 15.01099954485415
WNISAT 1R               
1 42835U 17042L   26161.16229609  .00002156  00000+0  16997-3 0  9995
2 42835  97.4830 317.5364 0010304 171.3310 188.8095 15.01732532485452
LEMUR-2-GREENBERG       
1 42837U 17042N   26161.22534190  .00015632  00000+0  52147-3 0  9998
2 42837  97.3821 341.8840 0009199  38.0436 322.1453 15.31115485487324
LEMUR-2-FURIAUS         
1 42840U 17042R   26160.95260260  .00017238  00000+0  59459-3 0  9992
2 42840  97.3772 339.5843 0008510  91.1210 269.1005 15.30015729487104
CORVUS BC2              
1 42846U 17042X   26160.88744001  .00002553  00000+0  17769-3 0  9992
2 42846  97.4054 322.5225 0014207 132.8249 227.4176 15.06248195485961
CORVUS BC1              
1 42847U 17042Y   26160.94930317  .00002939  00000+0  20311-3 0  9992
2 42847  97.4081 323.3911 0013225 111.4047 248.8593 15.06416487486008
VRSS-2                  
1 42954U 17060A   26161.29651541  .00000424  00000+0  60781-4 0  9992
2 42954  97.6518 199.3337 0018366 119.4468 240.8581 14.81182398467431
MOHAMMED VI-A           
1 43005U 17070A   26161.30113742  .00000798  00000+0  12025-3 0  9990
2 43005  97.9554 233.7270 0001488  73.6751 286.4623 14.77061395462968
FENGYUN 3D              
1 43010U 17072A   26161.24082684  .00000198  00000+0  11555-3 0  9992
2 43010  99.0124 135.5377 0002662  73.1397 287.0070 14.19738836444008
NOAA 20 (JPSS-1)        
1 43013U 17073A   26161.23463922  .00000035  00000+0  37461-4 0  9998
2 43013  98.7772 100.7591 0000401  48.2084 311.9127 14.19510454443488
MAKERSAT 0              
1 43016U 17073D   26161.19104369  .00018116  00000+0  49573-3 0  9998
2 43016  97.4634  43.6556 0105691 298.3481  60.7133 15.31854691465395
RADFXSAT (FOX-1B)       
1 43017U 17073E   26160.60079623  .00007602  00000+0  33267-3 0  9999
2 43017  97.4720  27.9710 0150699 355.5385   4.4491 15.12592571464246
JILIN-1 04              
1 43022U 17074A   26161.27403516  .00012618  00000+0  29527-3 0  9999
2 43022  97.4847 270.7035 0003548 202.0720 158.0375 15.42269302473208
JILIN-1 05              
1 43023U 17074B   26161.27112662  .00007571  00000+0  23430-3 0  9998
2 43023  97.4853 267.3327 0003880 244.2180 115.8662 15.33767969472941
JILIN-1 06              
1 43024U 17074C   26161.30719841  .00004981  00000+0  15573-3 0  9996
2 43024  97.4781 264.3874 0005317 260.9467  99.1174 15.33618467472788
IRIDIUM 116             
1 43072U 17083C   26160.95906430  .00000047  00000+0  98132-5 0  9994
2 43072  86.3959 325.0242 0001881  94.9084 265.2327 14.34217476443139
IRIDIUM 130             
1 43073U 17083D   26160.92735019 -.00000109  00000+0 -46067-4 0  9995
2 43073  86.3963 325.3121 0001843  88.4845 271.6562 14.34217599443076
LKW-2                   
1 43080U 17084A   26161.34133478  .00006132  00000+0  23932-3 0  9997
2 43080  97.1200 201.4575 0000270 196.3430 163.7801 15.26249476470648
SUPERVIEW-1 03          
1 43099U 18002A   26161.27430543  .00015769  00000+0  39470-3 0  9993
2 43099  97.3132 246.1237 0046783 204.3481 155.5555 15.39022944467307
LKW-3                   
1 43146U 18006A   26161.27505512  .00008918  00000+0  26418-3 0  9995
2 43146  97.6605 321.5799 0002552 355.1907   4.9311 15.35111978467650
